{
    "31793": {
        "gp_hist": [
            {
                "CCSDS_OMM_VERS": "2.0",
                "COMMENT": "GENERATED VIA SPACE-TRACK.ORG API",
                "CREATION_DATE": "2023-03-06T02:27:07",
                "ORIGINATOR": "18 SPCS",
                "OBJECT_NAME": "SL-16 R/B",
                "OBJECT_ID": "2007-029B",
                "CENTER_NAME": "EARTH",
                "REF_FRAME": "TEME",
                "TIME_SYSTEM": "UTC",
                "MEAN_ELEMENT_THEORY": "SGP4",
                "EPOCH": "2023-03-05T23:07:52.212000",
                "MEAN_MOTION": "14.14516405",
                "ECCENTRICITY": "0.00024410",
                "INCLINATION": "70.9782",
                "RA_OF_ASC_NODE": "323.4738",
                "ARG_OF_PERICENTER": "259.2093",
                "MEAN_ANOMALY": "112.0119",
                "EPHEMERIS_TYPE": "0",
                "CLASSIFICATION_TYPE": "U",
                "NORAD_CAT_ID": "31793",
                "ELEMENT_SET_NO": "999",
                "REV_AT_EPOCH": "80984",
                "BSTAR": "0.00025620000000",
                "MEAN_MOTION_DOT": "0.00000444",
                "MEAN_MOTION_DDOT": "0.0000000000000",
                "SEMIMAJOR_AXIS": "7222.095",
                "PERIOD": "101.802",
                "APOAPSIS": "845.723",
                "PERIAPSIS": "842.197",
                "OBJECT_TYPE": "ROCKET BODY",
                "RCS_SIZE": "LARGE",
                "COUNTRY_CODE": "CIS",
                "LAUNCH_DATE": "2007-06-29",
                "SITE": "TTMTR",
                "DECAY_DATE": null,
                "FILE": "3852256",
                "GP_ID": "227569385",
                "TLE_LINE0": "0 SL-16 R/B",
                "TLE_LINE1": "1 31793U 07029B   23064.96379875  .00000444  00000-0  25620-3 0  9990",
                "TLE_LINE2": "2 31793  70.9782 323.4738 0002441 259.2093 112.0119 14.14516405809844"
            },
            {
                "CCSDS_OMM_VERS": "2.0",
                "COMMENT": "GENERATED VIA SPACE-TRACK.ORG API",
                "CREATION_DATE": "2023-03-05T22:26:12",
                "ORIGINATOR": "18 SPCS",
                "OBJECT_NAME": "SL-16 R/B",
                "OBJECT_ID": "2007-029B",
                "CENTER_NAME": "EARTH",
                "REF_FRAME": "TEME",
                "TIME_SYSTEM": "UTC",
                "MEAN_ELEMENT_THEORY": "SGP4",
                "EPOCH": "2023-03-05T19:59:23.811936",
                "MEAN_MOTION": "14.14516250",
                "ECCENTRICITY": "0.00024410",
                "INCLINATION": "70.9780",
                "RA_OF_ASC_NODE": "323.7487",
                "ARG_OF_PERICENTER": "259.1942",
                "MEAN_ANOMALY": "165.7289",
                "EPHEMERIS_TYPE": "0",
                "CLASSIFICATION_TYPE": "U",
                "NORAD_CAT_ID": "31793",
                "ELEMENT_SET_NO": "999",
                "REV_AT_EPOCH": "80991",
                "BSTAR": "0.00025142000000",
                "MEAN_MOTION_DOT": "0.00000435",
                "MEAN_MOTION_DDOT": "0.0000000000000",
                "SEMIMAJOR_AXIS": "7222.095",
                "PERIOD": "101.802",
                "APOAPSIS": "845.723",
                "PERIAPSIS": "842.197",
                "OBJECT_TYPE": "ROCKET BODY",
                "RCS_SIZE": "LARGE",
                "COUNTRY_CODE": "CIS",
                "LAUNCH_DATE": "2007-06-29",
                "SITE": "TTMTR",
                "DECAY_DATE": null,
                "FILE": "3851955",
                "GP_ID": "227552115",
                "TLE_LINE0": "0 SL-16 R/B",
                "TLE_LINE1": "1 31793U 07029B   23064.83291449  .00000435  00000-0  25142-3 0  9995",
                "TLE_LINE2": "2 31793  70.9780 323.7487 0002441 259.1942 165.7289 14.14516250809917"
            },
            {
                "CCSDS_OMM_VERS": "2.0",
                "COMMENT": "GENERATED VIA SPACE-TRACK.ORG API",
                "CREATION_DATE": "2023-03-05T20:32:20",
                "ORIGINATOR": "18 SPCS",
                "OBJECT_NAME": "SL-16 R/B",
                "OBJECT_ID": "2007-029B",
                "CENTER_NAME": "EARTH",
                "REF_FRAME": "TEME",
                "TIME_SYSTEM": "UTC",
                "MEAN_ELEMENT_THEORY": "SGP4",
                "EPOCH": "2023-03-05T04:56:59.370144",
                "MEAN_MOTION": "14.14515654",
                "ECCENTRICITY": "0.00024290",
                "INCLINATION": "70.9781",
                "RA_OF_ASC_NODE": "325.0653",
                "ARG_OF_PERICENTER": "259.0366",
                "MEAN_ANOMALY": "215.6612",
                "EPHEMERIS_TYPE": "0",
                "CLASSIFICATION_TYPE": "U",
                "NORAD_CAT_ID": "31793",
                "ELEMENT_SET_NO": "999",
                "REV_AT_EPOCH": "80973",
                "BSTAR": "0.00025698000000",
                "MEAN_MOTION_DOT": "0.00000445",
                "MEAN_MOTION_DDOT": "0.0000000000000",
                "SEMIMAJOR_AXIS": "7222.097",
                "PERIOD": "101.802",
                "APOAPSIS": "845.717",
                "PERIAPSIS": "842.208",
                "OBJECT_TYPE": "ROCKET BODY",
                "RCS_SIZE": "LARGE",
                "COUNTRY_CODE": "CIS",
                "LAUNCH_DATE": "2007-06-29",
                "SITE": "TTMTR",
                "DECAY_DATE": null,
                "FILE": "3851939",
                "GP_ID": "227535721",
                "TLE_LINE0": "0 SL-16 R/B",
                "TLE_LINE1": "1 31793U 07029B   23064.20624271  .00000445  00000-0  25698-3 0  9996",
                "TLE_LINE2": "2 31793  70.9781 325.0653 0002429 259.0366 215.6612 14.14515654809735"
            },
            {
                "CCSDS_OMM_VERS": "2.0",
                "COMMENT": "GENERATED VIA SPACE-TRACK.ORG API",
                "CREATION_DATE": "2023-03-05T02:16:30",
                "ORIGINATOR": "18 SPCS",
                "OBJECT_NAME": "SL-16 R/B",
                "OBJECT_ID": "2007-029B",
                "CENTER_NAME": "EARTH",
                "REF_FRAME": "TEME",
                "TIME_SYSTEM": "UTC",
                "MEAN_ELEMENT_THEORY": "SGP4",
                "EPOCH": "2023-03-04T18:30:54.232128",
                "MEAN_MOTION": "14.14515215",
                "ECCENTRICITY": "0.00024380",
                "INCLINATION": "70.9780",
                "RA_OF_ASC_NODE": "325.9786",
                "ARG_OF_PERICENTER": "258.8934",
                "MEAN_ANOMALY": "162.4438",
                "EPHEMERIS_TYPE": "0",
                "CLASSIFICATION_TYPE": "U",
                "NORAD_CAT_ID": "31793",
                "ELEMENT_SET_NO": "999",
                "REV_AT_EPOCH": "80967",
                "BSTAR": "0.00025232000000",
                "MEAN_MOTION_DOT": "0.00000436",
                "MEAN_MOTION_DDOT": "0.0000000000000",
                "SEMIMAJOR_AXIS": "7222.099",
                "PERIOD": "101.802",
                "APOAPSIS": "845.725",
                "PERIAPSIS": "842.203",
                "OBJECT_TYPE": "ROCKET BODY",
                "RCS_SIZE": "LARGE",
                "COUNTRY_CODE": "CIS",
                "LAUNCH_DATE": "2007-06-29",
                "SITE": "TTMTR",
                "DECAY_DATE": null,
                "FILE": "3851350",
                "GP_ID": "227496836",
                "TLE_LINE0": "0 SL-16 R/B",
                "TLE_LINE1": "1 31793U 07029B   23063.77146102  .00000436  00000-0  25232-3 0  9993",
                "TLE_LINE2": "2 31793  70.9780 325.9786 0002438 258.8934 162.4438 14.14515215809679"
            },
            {
                "CCSDS_OMM_VERS": "2.0",
                "COMMENT": "GENERATED VIA SPACE-TRACK.ORG API",
                "CREATION_DATE": "2023-03-04T18:23:08",
                "ORIGINATOR": "18 SPCS",
                "OBJECT_NAME": "SL-16 R/B",
                "OBJECT_ID": "2007-029B",
                "CENTER_NAME": "EARTH",
                "REF_FRAME": "TEME",
                "TIME_SYSTEM": "UTC",
                "MEAN_ELEMENT_THEORY": "SGP4",
                "EPOCH": "2023-03-04T05:11:15.137088",
                "MEAN_MOTION": "14.14514712",
                "ECCENTRICITY": "0.00024360",
                "INCLINATION": "70.9780",
                "RA_OF_ASC_NODE": "327.1452",
                "ARG_OF_PERICENTER": "258.7740",
                "MEAN_ANOMALY": "215.6066",
                "EPHEMERIS_TYPE": "0",
                "CLASSIFICATION_TYPE": "U",
                "NORAD_CAT_ID": "31793",
                "ELEMENT_SET_NO": "999",
                "REV_AT_EPOCH": "80959",
                "BSTAR": "0.00025712000000",
                "MEAN_MOTION_DOT": "0.00000446",
                "MEAN_MOTION_DDOT": "0.0000000000000",
                "SEMIMAJOR_AXIS": "7222.101",
                "PERIOD": "101.802",
                "APOAPSIS": "845.725",
                "PERIAPSIS": "842.206",
                "OBJECT_TYPE": "ROCKET BODY",
                "RCS_SIZE": "LARGE",
                "COUNTRY_CODE": "CIS",
                "LAUNCH_DATE": "2007-06-29",
                "SITE": "TTMTR",
                "DECAY_DATE": null,
                "FILE": "3851072",
                "GP_ID": "227463063",
                "TLE_LINE0": "0 SL-16 R/B",
                "TLE_LINE1": "1 31793U 07029B   23063.21614742  .00000446  00000-0  25712-3 0  9996",
                "TLE_LINE2": "2 31793  70.9780 327.1452 0002436 258.7740 215.6066 14.14514712809595"
            }
        ],
        "vimpelId": null,
        "depth": null,
        "name": "Zenit-2 second stage (Zenit-2M)",
        "cosparId": "2007-029B",
        "xSectAvg": 37.8287025400381,
        "shape": "Cyl",
        "width": null,
        "xSectMax": 42.2826001059582,
        "height": 10.4,
        "diameter": 3.9,
        "xSectMin": 11.9459060652752,
        "mass": 9000.0,
        "span": 10.4,
        "satno": 31793,
        "objectClass": "Rocket Body"
    }
}
